<?xml version="1.0" encoding="UTF-8"?>
<ndm xmlns:xsi="http://www.w3.org/2001/XMLSchema-instance" xsi:noNamespaceSchemaLocation="https://sanaregistry.org/r/ndmxml_unqualified/ndmxml-2.0.0-master-2.0.xsd">
<omm id="CCSDS_OMM_VERS" version="2.0">
<header><CREATION_DATE/><ORIGINATOR/></header><body><segment><metadata><OBJECT_NAME>KUIPER-00053</OBJECT_NAME><OBJECT_ID>2025-134P</OBJECT_ID><CENTER_NAME>EARTH</CENTER_NAME><REF_FRAME>TEME</REF_FRAME><TIME_SYSTEM>UTC</TIME_SYSTEM><MEAN_ELEMENT_THEORY>SGP4</MEAN_ELEMENT_THEORY></metadata><data><meanElements><EPOCH>2025-12-08T04:57:04.153248</EPOCH><MEAN_MOTION>14.80023834</MEAN_MOTION><ECCENTRICITY>.00017477</ECCENTRICITY><INCLINATION>51.9016</INCLINATION><RA_OF_ASC_NODE>267.6325</RA_OF_ASC_NODE><ARG_OF_PERICENTER>50.1911</ARG_OF_PERICENTER><MEAN_ANOMALY>309.9205</MEAN_ANOMALY></meanElements><tleParameters><EPHEMERIS_TYPE>0</EPHEMERIS_TYPE><CLASSIFICATION_TYPE>U</CLASSIFICATION_TYPE><NORAD_CAT_ID>64513</NORAD_CAT_ID><ELEMENT_SET_NO>999</ELEMENT_SET_NO><REV_AT_EPOCH>2666</REV_AT_EPOCH><BSTAR>.36863422E-3</BSTAR><MEAN_MOTION_DOT>.2596E-4</MEAN_MOTION_DOT><MEAN_MOTION_DDOT>0</MEAN_MOTION_DDOT></tleParameters></data></segment></body></omm>
<omm id="CCSDS_OMM_VERS" version="2.0">
<header><CREATION_DATE/><ORIGINATOR/></header><body><segment><metadata><OBJECT_NAME>KUIPER-00054</OBJECT_NAME><OBJECT_ID>2025-134Q</OBJECT_ID><CENTER_NAME>EARTH</CENTER_NAME><REF_FRAME>TEME</REF_FRAME><TIME_SYSTEM>UTC</TIME_SYSTEM><MEAN_ELEMENT_THEORY>SGP4</MEAN_ELEMENT_THEORY></metadata><data><meanElements><EPOCH>2025-12-08T01:48:54.475200</EPOCH><MEAN_MOTION>14.80053393</MEAN_MOTION><ECCENTRICITY>.00054816</ECCENTRICITY><INCLINATION>51.8980</INCLINATION><RA_OF_ASC_NODE>263.1934</RA_OF_ASC_NODE><ARG_OF_PERICENTER>15.3105</ARG_OF_PERICENTER><MEAN_ANOMALY>344.8022</MEAN_ANOMALY></meanElements><tleParameters><EPHEMERIS_TYPE>0</EPHEMERIS_TYPE><CLASSIFICATION_TYPE>U</CLASSIFICATION_TYPE><NORAD_CAT_ID>64514</NORAD_CAT_ID><ELEMENT_SET_NO>999</ELEMENT_SET_NO><REV_AT_EPOCH>2671</REV_AT_EPOCH><BSTAR>.77872096E-3</BSTAR><MEAN_MOTION_DOT>.5737E-4</MEAN_MOTION_DOT><MEAN_MOTION_DDOT>0</MEAN_MOTION_DDOT></tleParameters></data></segment></body></omm>
<omm id="CCSDS_OMM_VERS" version="2.0">
<header><CREATION_DATE/><ORIGINATOR/></header><body><segment><metadata><OBJECT_NAME>KUIPER-00055</OBJECT_NAME><OBJECT_ID>2025-134R</OBJECT_ID><CENTER_NAME>EARTH</CENTER_NAME><REF_FRAME>TEME</REF_FRAME><TIME_SYSTEM>UTC</TIME_SYSTEM><MEAN_ELEMENT_THEORY>SGP4</MEAN_ELEMENT_THEORY></metadata><data><meanElements><EPOCH>2025-12-08T03:02:41.826336</EPOCH><MEAN_MOTION>15.17693285</MEAN_MOTION><ECCENTRICITY>.00027919</ECCENTRICITY><INCLINATION>51.8907</INCLINATION><RA_OF_ASC_NODE>250.1510</RA_OF_ASC_NODE><ARG_OF_PERICENTER>156.8872</ARG_OF_PERICENTER><MEAN_ANOMALY>203.2233</MEAN_ANOMALY></meanElements><tleParameters><EPHEMERIS_TYPE>0</EPHEMERIS_TYPE><CLASSIFICATION_TYPE>U</CLASSIFICATION_TYPE><NORAD_CAT_ID>64515</NORAD_CAT_ID><ELEMENT_SET_NO>999</ELEMENT_SET_NO><REV_AT_EPOCH>2690</REV_AT_EPOCH><BSTAR>.93347933E-3</BSTAR><MEAN_MOTION_DOT>.18793E-3</MEAN_MOTION_DOT><MEAN_MOTION_DDOT>0</MEAN_MOTION_DDOT></tleParameters></data></segment></body></omm>
<omm id="CCSDS_OMM_VERS" version="2.0">
<header><CREATION_DATE/><ORIGINATOR/></header><body><segment><metadata><OBJECT_NAME>KUIPER-00056</OBJECT_NAME><OBJECT_ID>2025-134S</OBJECT_ID><CENTER_NAME>EARTH</CENTER_NAME><REF_FRAME>TEME</REF_FRAME><TIME_SYSTEM>UTC</TIME_SYSTEM><MEAN_ELEMENT_THEORY>SGP4</MEAN_ELEMENT_THEORY></metadata><data><meanElements><EPOCH>2025-12-08T04:53:43.262016</EPOCH><MEAN_MOTION>14.79872046</MEAN_MOTION><ECCENTRICITY>.00021834</ECCENTRICITY><INCLINATION>51.9032</INCLINATION><RA_OF_ASC_NODE>268.6702</RA_OF_ASC_NODE><ARG_OF_PERICENTER>22.8166</ARG_OF_PERICENTER><MEAN_ANOMALY>337.2893</MEAN_ANOMALY></meanElements><tleParameters><EPHEMERIS_TYPE>0</EPHEMERIS_TYPE><CLASSIFICATION_TYPE>U</CLASSIFICATION_TYPE><NORAD_CAT_ID>64516</NORAD_CAT_ID><ELEMENT_SET_NO>999</ELEMENT_SET_NO><REV_AT_EPOCH>2665</REV_AT_EPOCH><BSTAR>.85416342E-3</BSTAR><MEAN_MOTION_DOT>.6287E-4</MEAN_MOTION_DOT><MEAN_MOTION_DDOT>0</MEAN_MOTION_DDOT></tleParameters></data></segment></body></omm>
<omm id="CCSDS_OMM_VERS" version="2.0">
<header><CREATION_DATE/><ORIGINATOR/></header><body><segment><metadata><OBJECT_NAME>KUIPER-00057</OBJECT_NAME><OBJECT_ID>2025-134T</OBJECT_ID><CENTER_NAME>EARTH</CENTER_NAME><REF_FRAME>TEME</REF_FRAME><TIME_SYSTEM>UTC</TIME_SYSTEM><MEAN_ELEMENT_THEORY>SGP4</MEAN_ELEMENT_THEORY></metadata><data><meanElements><EPOCH>2025-12-08T04:42:12.763584</EPOCH><MEAN_MOTION>14.79921287</MEAN_MOTION><ECCENTRICITY>.00095079</ECCENTRICITY><INCLINATION>51.9002</INCLINATION><RA_OF_ASC_NODE>276.1970</RA_OF_ASC_NODE><ARG_OF_PERICENTER>336.4558</ARG_OF_PERICENTER><MEAN_ANOMALY>23.5968</MEAN_ANOMALY></meanElements><tleParameters><EPHEMERIS_TYPE>0</EPHEMERIS_TYPE><CLASSIFICATION_TYPE>U</CLASSIFICATION_TYPE><NORAD_CAT_ID>64517</NORAD_CAT_ID><ELEMENT_SET_NO>999</ELEMENT_SET_NO><REV_AT_EPOCH>2654</REV_AT_EPOCH><BSTAR>.12001788E-2</BSTAR><MEAN_MOTION_DOT>.8942E-4</MEAN_MOTION_DOT><MEAN_MOTION_DDOT>0</MEAN_MOTION_DDOT></tleParameters></data></segment></body></omm>
<omm id="CCSDS_OMM_VERS" version="2.0">
<header><CREATION_DATE/><ORIGINATOR/></header><body><segment><metadata><OBJECT_NAME>KUIPER-00058</OBJECT_NAME><OBJECT_ID>2025-134U</OBJECT_ID><CENTER_NAME>EARTH</CENTER_NAME><REF_FRAME>TEME</REF_FRAME><TIME_SYSTEM>UTC</TIME_SYSTEM><MEAN_ELEMENT_THEORY>SGP4</MEAN_ELEMENT_THEORY></metadata><data><meanElements><EPOCH>2025-12-08T04:52:12.216288</EPOCH><MEAN_MOTION>14.79896339</MEAN_MOTION><ECCENTRICITY>.00046483</ECCENTRICITY><INCLINATION>51.9000</INCLINATION><RA_OF_ASC_NODE>270.0833</RA_OF_ASC_NODE><ARG_OF_PERICENTER>25.9811</ARG_OF_PERICENTER><MEAN_ANOMALY>334.1383</MEAN_ANOMALY></meanElements><tleParameters><EPHEMERIS_TYPE>0</EPHEMERIS_TYPE><CLASSIFICATION_TYPE>U</CLASSIFICATION_TYPE><NORAD_CAT_ID>64518</NORAD_CAT_ID><ELEMENT_SET_NO>999</ELEMENT_SET_NO><REV_AT_EPOCH>2663</REV_AT_EPOCH><BSTAR>.12394619E-2</BSTAR><MEAN_MOTION_DOT>.9233E-4</MEAN_MOTION_DOT><MEAN_MOTION_DDOT>0</MEAN_MOTION_DDOT></tleParameters></data></segment></body></omm>
<omm id="CCSDS_OMM_VERS" version="2.0">
<header><CREATION_DATE/><ORIGINATOR/></header><body><segment><metadata><OBJECT_NAME>KUIPER-00059</OBJECT_NAME><OBJECT_ID>2025-134V</OBJECT_ID><CENTER_NAME>EARTH</CENTER_NAME><REF_FRAME>TEME</REF_FRAME><TIME_SYSTEM>UTC</TIME_SYSTEM><MEAN_ELEMENT_THEORY>SGP4</MEAN_ELEMENT_THEORY></metadata><data><meanElements><EPOCH>2025-12-08T04:59:45.799872</EPOCH><MEAN_MOTION>14.79966438</MEAN_MOTION><ECCENTRICITY>.00042329</ECCENTRICITY><INCLINATION>51.8997</INCLINATION><RA_OF_ASC_NODE>265.1143</RA_OF_ASC_NODE><ARG_OF_PERICENTER>150.3765</ARG_OF_PERICENTER><MEAN_ANOMALY>209.7438</MEAN_ANOMALY></meanElements><tleParameters><EPHEMERIS_TYPE>0</EPHEMERIS_TYPE><CLASSIFICATION_TYPE>U</CLASSIFICATION_TYPE><NORAD_CAT_ID>64519</NORAD_CAT_ID><ELEMENT_SET_NO>999</ELEMENT_SET_NO><REV_AT_EPOCH>2670</REV_AT_EPOCH><BSTAR>.10910462E-2</BSTAR><MEAN_MOTION_DOT>.8113E-4</MEAN_MOTION_DOT><MEAN_MOTION_DDOT>0</MEAN_MOTION_DDOT></tleParameters></data></segment></body></omm>
<omm id="CCSDS_OMM_VERS" version="2.0">
<header><CREATION_DATE/><ORIGINATOR/></header><body><segment><metadata><OBJECT_NAME>KUIPER-00060</OBJECT_NAME><OBJECT_ID>2025-134W</OBJECT_ID><CENTER_NAME>EARTH</CENTER_NAME><REF_FRAME>TEME</REF_FRAME><TIME_SYSTEM>UTC</TIME_SYSTEM><MEAN_ELEMENT_THEORY>SGP4</MEAN_ELEMENT_THEORY></metadata><data><meanElements><EPOCH>2025-12-08T04:53:56.457888</EPOCH><MEAN_MOTION>14.80035866</MEAN_MOTION><ECCENTRICITY>.00030727</ECCENTRICITY><INCLINATION>51.9019</INCLINATION><RA_OF_ASC_NODE>266.1445</RA_OF_ASC_NODE><ARG_OF_PERICENTER>65.7046</ARG_OF_PERICENTER><MEAN_ANOMALY>294.4237</MEAN_ANOMALY></meanElements><tleParameters><EPHEMERIS_TYPE>0</EPHEMERIS_TYPE><CLASSIFICATION_TYPE>U</CLASSIFICATION_TYPE><NORAD_CAT_ID>64520</NORAD_CAT_ID><ELEMENT_SET_NO>999</ELEMENT_SET_NO><REV_AT_EPOCH>2667</REV_AT_EPOCH><BSTAR>.11577829E-2</BSTAR><MEAN_MOTION_DOT>.8638E-4</MEAN_MOTION_DOT><MEAN_MOTION_DDOT>0</MEAN_MOTION_DDOT></tleParameters></data></segment></body></omm>

</ndm>
