KUIPER-00053            
1 64513U 25134P   25342.20629807  .00002596  00000+0  36863-3 0  9994
2 64513  51.9016 267.6325 0001747  50.1911 309.9205 14.80023834 26661
KUIPER-00054            
1 64514U 25134Q   25342.07563050  .00005737  00000+0  77872-3 0  9992
2 64514  51.8980 263.1934 0005481  15.3105 344.8022 14.80053393 26719
KUIPER-00055            
1 64515U 25134R   25342.12687299  .00018793  00000+0  93348-3 0  9993
2 64515  51.8907 250.1510 0002791 156.8872 203.2233 15.17693285 26902
KUIPER-00056            
1 64516U 25134S   25342.20397294  .00006287  00000+0  85416-3 0  9998
2 64516  51.9032 268.6702 0002183  22.8166 337.2893 14.79872046 26656
KUIPER-00057            
1 64517U 25134T   25342.19598106  .00008942  00000+0  12002-2 0  9992
2 64517  51.9002 276.1970 0009507 336.4558  23.5968 14.79921287 26549
KUIPER-00058            
1 64518U 25134U   25342.20291917  .00009233  00000+0  12395-2 0  9994
2 64518  51.9000 270.0833 0004648  25.9811 334.1383 14.79896339 26633
KUIPER-00059            
1 64519U 25134V   25342.20816898  .00008113  00000+0  10910-2 0  9993
2 64519  51.8997 265.1143 0004232 150.3765 209.7438 14.79966438 26701
KUIPER-00060            
1 64520U 25134W   25342.20412567  .00008638  00000+0  11578-2 0  9993
2 64520  51.9019 266.1445 0003072  65.7046 294.4237 14.80035866 26675
